NORAD_CAT_ID,OBJECT_NAME,OBJECT_TYPE,EPOCH,MEAN_MOTION,ECCENTRICITY,INCLINATION,RA_OF_ASC_NODE,ARG_OF_PERICENTER,MEAN_ANOMALY,BSTAR,MEAN_MOTION_DOT,MEAN_MOTION_DDOT,TLE_LINE0,TLE_LINE1,TLE_LINE2,SEMIMAJOR_AXIS,PERIOD,APOGEE,PERIGEE,DECAYED
52831.0,STARLINK-4089,PAYLOAD,2022-07-15 14:00:01,15.73206297,0.0002928,53.2147,266.0357,19.0821,103.825,0.00028661,0.0003981,0.0,0 STARLINK-4089,1 52831U 22062B   22196.58334491  .00039810  00000-0  28661-3 0  9995,2 52831  53.2147 266.0357 0002928  19.0821 103.8250 15.73206297  1309,6727.877,91.533,351.712,347.772,0.0
52831.0,STARLINK-4089,PAYLOAD,2022-07-15 22:00:00,15.73389907,0.0002759,53.2158,264.3825,16.016,195.8315,-0.0039233,-0.00522823,0.0,0 STARLINK-4089,1 52831U 22062B   22196.91667824 -.00522823  00000-0 -39233-2 0  9990,2 52831  53.2158 264.3825 0002759  16.0160 195.8315 15.73389907  4987,6727.354,91.522,351.075,347.36300000000006,0.0
52831.0,STARLINK-4089,PAYLOAD,2022-07-16 06:00:00,15.73159962,0.0002474,53.2167,262.7288,12.9827,287.7775,-0.0071452,-0.00900824,0.0,0 STARLINK-4089,1 52831U 22062B   22197.25001157 -.00900824  00000-0 -71452-2 0  9999,2 52831  53.2167 262.7288 0002474  12.9827 287.7775 15.73159962  5035,6728.009,91.536,351.539,348.21,0.0
52831.0,STARLINK-4089,PAYLOAD,2022-07-16 14:00:01,15.72502014,0.0002566999999999,53.2176,261.0781,12.4189,16.8343,-0.0090935,-0.01108738,0.0,0 STARLINK-4089,1 52831U 22062B   22197.58334491 -.01108738  00000-0 -90935-2 0  9997,2 52831  53.2176 261.0781 0002567  12.4189  16.8343 15.72502014  5080,6729.886,91.574,353.478,350.023,0.0
52831.0,STARLINK-4089,PAYLOAD,2022-07-16 22:00:00,15.71698173,0.0002896,53.2175,259.4254,10.9746,105.8804,-0.0093916,-0.01106754,0.0,0 STARLINK-4089,1 52831U 22062B   22197.91667824 -.01106754  00000-0 -93916-2 0  9991,2 52831  53.2175 259.4254 0002896  10.9746 105.8804 15.71698173  1305,6732.18,91.621,355.995,352.096,0.0
52831.0,STARLINK-4089,PAYLOAD,2022-07-17 06:00:00,15.70895908,0.0002804,53.2177,257.7767,14.0194,189.4704,-0.0097208,-0.01107051,0.0,0 STARLINK-4089,1 52831U 22062B   22198.25001157 -.01107051  00000-0 -97208-2 0  9999,2 52831  53.2177 257.7767 0002804  14.0194 189.4704 15.70895908  5190,6734.472,91.667,358.226,354.449,0.0
52831.0,STARLINK-4089,PAYLOAD,2022-07-17 14:00:01,15.70093318,0.0002942,53.2174,256.1316,9.8319,279.3274,-0.01006,-0.01107543,0.0,0 STARLINK-4089,1 52831U 22062B   22198.58334491 -.01107543  00000-0 -10060-1 0  9991,2 52831  53.2174 256.1316 0002942   9.8319 279.3274 15.70093318  1309,6736.767,91.714,360.614,356.65,0.0
52831.0,STARLINK-4089,PAYLOAD,2022-07-17 22:00:00,15.69290319,0.0002913,53.2174,254.4847,7.3503,6.5163,-0.010403,-0.01107408,0.0,0 STARLINK-4089,1 52831U 22062B   22198.91667824 -.01107408  00000-0 -10403-1 0  9998,2 52831  53.2174 254.4847 0002913   7.3503   6.5163 15.69290319  5292,6739.065,91.761,362.893,358.967,0.0
52831.0,STARLINK-4089,PAYLOAD,2022-07-18 06:00:00,15.69956417,0.0008253,53.2137,252.868,273.8852,185.3788,9.1731e-05,0.00010661,0.0,0 STARLINK-4089,1 52831U 22062B   22199.25001157  .00010661  00000-0  91731-4 0  9994,2 52831  53.2137 252.8680 0008253 273.8852 185.3788 15.69956417  5341,6737.159000000002,91.722,364.584,353.464,0.0
52831.0,STARLINK-4089,PAYLOAD,2022-07-18 14:00:01,15.6768006,0.0003364,53.2174,251.2025,8.6217,171.7621,-0.011024,-0.01098973,0.0,0 STARLINK-4089,1 52831U 22062B   22199.58334491 -.01098973  00000-0 -11024-1 0  9999,2 52831  53.2174 251.2025 0003364   8.6217 171.7621 15.67680060  5403,6743.679,91.855,367.81300000000016,363.275,0.0
52831.0,STARLINK-4089,PAYLOAD,2022-07-18 22:00:00,15.66882592,0.0003101,53.2176,249.5615,8.0803,254.1143,-0.011494,-0.01125681,0.0,0 STARLINK-4089,1 52831U 22062B   22199.91667824 -.01125681  00000-0 -11494-1 0  9993,2 52831  53.2176 249.5615 0003101   8.0803 254.1143 15.66882592  1307,6745.967,91.902,369.924,365.74,0.0
52831.0,STARLINK-4089,PAYLOAD,2022-07-19 06:00:00,15.66080326,0.000315,53.2177,247.9246,5.9691,337.0714,-0.0118819999999999,-0.01126278,0.0,0 STARLINK-4089,1 52831U 22062B   22200.25001157 -.01126278  00000-0 -11882-1 0  9998,2 52831  53.2177 247.9246 0003150   5.9691 337.0714 15.66080326  5501,6748.271,91.949,372.261,368.01,0.0
52831.0,STARLINK-4089,PAYLOAD,2022-07-19 14:00:01,15.65273143,0.0001137,53.2173,246.291,61.1674,1.7555,-0.012187,-0.01118085,0.0,0 STARLINK-4089,1 52831U 22062B   22200.58334491 -.01118085  00000-0 -12187-1 0  9990,2 52831  53.2173 246.2910 0001137  61.1674   1.7555 15.65273143  1307,6750.59,91.997,373.223,371.68800000000016,0.0
52831.0,STARLINK-4089,PAYLOAD,2022-07-19 22:00:00,15.64470963,0.0001199,53.2173,244.6558,69.3628,72.4781,-0.012598,-0.0111911,0.0,0 STARLINK-4089,1 52831U 22062B   22200.91667824 -.01119110  00000-0 -12598-1 0  9992,2 52831  53.2173 244.6558 0001199  69.3628  72.4781 15.64470963  1308,6752.898,92.044,375.572,373.953,0.0
52831.0,STARLINK-4089,PAYLOAD,2022-07-20 04:00:00,15.63869062,0.0001284,53.2173,243.4331,59.7935,50.601000000000006,-0.012907,-0.01119371,0.0,0 STARLINK-4089,1 52831U 22062B   22201.16667824 -.01119371  00000-0 -12907-1 0  9993,2 52831  53.2173 243.4331 0001284  59.7935  50.6010 15.63869062  5659,6754.63,92.079,377.36300000000006,375.628,0.0
52831.0,STARLINK-4089,PAYLOAD,2022-07-20 14:00:01,15.62864571,0.000106,53.2172,241.3973,93.5055,203.2733,-0.0134,-0.01116958,0.0,0 STARLINK-4089,1 52831U 22062B   22201.58334491 -.01116958  00000-0 -13400-1 0  9997,2 52831  53.2172 241.3973 0001060  93.5055 203.2733 15.62864571  1303,6757.524,92.139,380.106,378.673,0.0
52831.0,STARLINK-4089,PAYLOAD,2022-07-20 22:00:01,15.62062292,0.000101,53.2174,239.7676,68.771,304.0969,-0.013857,-0.01118966,0.0,0 STARLINK-4089,1 52831U 22062B   22201.91668981 -.01118966  00000-0 -13857-1 0  9995,2 52831  53.2174 239.7676 0001010  68.7710 304.0969 15.62062292  1304,6759.8380000000025,92.186,382.386,381.02,0.0
52831.0,STARLINK-4089,PAYLOAD,2022-07-21 14:00:01,15.60455047,0.0001216,53.2173,236.5207,76.3866,85.6308,-0.014693,-0.01114993,0.0,0 STARLINK-4089,1 52831U 22062B   22202.58335648 -.01114993  00000-0 -14693-1 0  9995,2 52831  53.2173 236.5207 0001216  76.3866  85.6308 15.60455047  1304,6764.479,92.281,387.166,385.521,0.0
52831.0,STARLINK-4089,PAYLOAD,2022-07-21 22:00:00,15.59653062,0.0001176,53.2175,234.8971,89.1779,145.9034,-0.015178,-0.0111656,0.0,0 STARLINK-4089,1 52831U 22062B   22202.91667824 -.01116560  00000-0 -15178-1 0  9997,2 52831  53.2175 234.8971 0001176  89.1779 145.9034 15.59653062  1306,6766.797,92.328,389.458,387.867,0.0
52831.0,STARLINK-4089,PAYLOAD,2022-07-22 06:00:00,15.58851962,0.0001204,53.2175,233.2786,59.5077,247.7353,-0.015691,-0.01119161,0.0,0 STARLINK-4089,1 52831U 22062B   22203.25001157 -.01119161  00000-0 -15691-1 0  9996,2 52831  53.2175 233.2786 0001204  59.5077 247.7353 15.58851962  5977,6769.116,92.376,391.796,390.166,0.0
52831.0,STARLINK-4089,PAYLOAD,2022-07-22 22:00:00,15.57244092,0.0001095999999999,53.2173,230.0442,75.0996,13.577,-0.016625,-0.01115913,0.0,0 STARLINK-4089,1 52831U 22062B   22203.91667824 -.01115913  00000-0 -16625-1 0  9997,2 52831  53.2173 230.0442 0001096  75.0996  13.5770 15.57244092  6085,6773.774,92.471,396.382,394.897,0.0
52831.0,STARLINK-4089,PAYLOAD,2022-07-23 14:00:01,15.55639919,0.0001237,53.2171,226.8204,73.6182,152.6939,-0.017675,-0.01117123,0.0,0 STARLINK-4089,1 52831U 22062B   22204.58335648 -.01117123  00000-0 -17675-1 0  9998,2 52831  53.2171 226.8204 0001237  73.6182 152.6939 15.55639919  1306,6778.43,92.566,401.134,399.457,0.0
52831.0,STARLINK-4089,PAYLOAD,2022-07-23 16:00:00,15.55440383,0.0001056,53.2172,226.4172,73.8214,259.3511,-0.01785,-0.01119529,0.0,0 STARLINK-4089,1 52831U 22062B   22204.66667824 -.01119529  00000-0 -17850-1 0  9998,2 52831  53.2172 226.4172 0001056  73.8214 259.3511 15.55440383  6192,6779.01,92.578,401.591,400.159,0.0
52831.0,STARLINK-4089,PAYLOAD,2022-07-23 22:00:00,15.54834609,0.0001095999999999,53.2173,225.2086,82.3253,211.2632,-0.018149,-0.01113624,0.0,0 STARLINK-4089,1 52831U 22062B   22204.91667824 -.01113624  00000-0 -18149-1 0  9998,2 52831  53.2173 225.2086 0001096  82.3253 211.2632 15.54834609  1302,6780.77,92.614,403.379,401.892,0.0
52831.0,STARLINK-4089,PAYLOAD,2022-07-24 14:00:01,15.53231086,0.0001085999999999,53.2172,221.9963,72.7316,352.6386,-0.019292,-0.01115757,0.0,0 STARLINK-4089,1 52831U 22062B   22205.58334491 -.01115757  00000-0 -19292-1 0  9992,2 52831  53.2172 221.9963 0001086  72.7316 352.6386 15.53231086  1305,6785.437,92.71,408.038,406.565,0.0
52831.0,STARLINK-4089,PAYLOAD,2022-07-24 22:00:00,15.52427466,0.0001298,53.2173,220.3904,60.9866,68.8299,-0.019867,-0.0111591,0.0,0 STARLINK-4089,1 52831U 22062B   22205.91667824 -.01115910  00000-0 -19867-1 0  9997,2 52831  53.2173 220.3904 0001298  60.9866  68.8299 15.52427466  1305,6787.778,92.758,410.524,408.762,0.0
52831.0,STARLINK-4089,PAYLOAD,2022-07-25 06:00:00,15.51622413,0.000159,53.2175,218.7897,45.5556,147.7403,-0.020365,-0.01111566,0.0,0 STARLINK-4089,1 52831U 22062B   22206.25001157 -.01111566  00000-0 -20365-1 0  9994,2 52831  53.2175 218.7897 0001590  45.5556 147.7403 15.51622413  6441,6790.126,92.806,413.07,410.911,0.0
52831.0,STARLINK-4089,PAYLOAD,2022-07-25 14:00:01,15.50713782,0.0001085999999999,53.2171,217.191,71.1628,184.6664,-0.015362,-0.0082244,0.0,0 STARLINK-4089,1 52831U 22062B   22206.58334491 -.00822440  00000-0 -15362-1 0  9990,2 52831  53.2171 217.1910 0001086  71.1628 184.6664 15.50713782  1309,6792.778,92.86,415.381,413.905,0.0
52831.0,STARLINK-4089,PAYLOAD,2022-07-25 22:00:00,15.50000983,0.0001115999999999,53.2172,215.5936,70.4822,246.9085,-0.003211,-0.00179315,0.0,0 STARLINK-4089,1 52831U 22062B   22206.91667824 -.00179315  00000-0 -32110-2 0  9993,2 52831  53.2172 215.5936 0001116  70.4822 246.9085 15.50000983  6544,6794.86,92.903,417.484,415.967,0.0
